{
  "type": "FeatureCollection",
  "features": [
    {
      "type": "Feature",
      "properties": {
        "norad_id": 66926,
        "name": "STARLINK-35942",
        "group": "last-30-days",
        "lat": 32.82296951434185,
        "lon": 155.3687428543869,
        "alt_km": 342.23409500449634,
        "timestamp": "2025-12-21T22:41:40.166780+00:00",
        "meta_object_name": "STARLINK-35942",
        "meta_object_id": "2025-286B",
        "meta_epoch": "2025-12-21T14:00:01.999872",
        "meta_mean_motion": 15.74102262,
        "meta_eccentricity": 0.00010512,
        "meta_inclination": 53.1577,
        "meta_ra_of_asc_node": 6.09,
        "meta_arg_of_pericenter": 107.4409,
        "meta_mean_anomaly": 135.8183,
        "meta_ephemeris_type": 0,
        "meta_classification_type": "U",
        "meta_norad_cat_id": 66926,
        "meta_element_set_no": 999,
        "meta_rev_at_epoch": 341,
        "meta_bstar": 0.00076109087,
        "meta_mean_motion_dot": 0.00111904,
        "meta_mean_motion_ddot": 0,
        "tle_line1": "1 66926U 25286B   25355.58335648  .00111904  00000+0  76109-3 0  9995",
        "tle_line2": "2 66926  53.1577   6.0900 0001051 107.4409 135.8183 15.74102262  3413"
      },
      "geometry": {
        "type": "Point",
        "coordinates": [
          155.3687428543869,
          32.82296951434185
        ]
      }
    },
    {
      "type": "Feature",
      "properties": {
        "norad_id": 66927,
        "name": "STARLINK-35943",
        "group": "last-30-days",
        "lat": 31.426082098427024,
        "lon": 157.02098996135504,
        "alt_km": 342.5464594576033,
        "timestamp": "2025-12-21T22:41:40.166796+00:00",
        "meta_object_name": "STARLINK-35943",
        "meta_object_id": "2025-286C",
        "meta_epoch": "2025-12-21T14:00:01.999872",
        "meta_mean_motion": 15.74173272,
        "meta_eccentricity": 0.00010046,
        "meta_inclination": 53.1579,
        "meta_ra_of_asc_node": 6.0865,
        "meta_arg_of_pericenter": 104.5186,
        "meta_mean_anomaly": 140.6757,
        "meta_ephemeris_type": 0,
        "meta_classification_type": "U",
        "meta_norad_cat_id": 66927,
        "meta_element_set_no": 999,
        "meta_rev_at_epoch": 341,
        "meta_bstar": 1.346042e-05,
        "meta_mean_motion_dot": 1.341e-05,
        "meta_mean_motion_ddot": 0,
        "tle_line1": "1 66927U 25286C   25355.58335648  .00001341  00000+0  13460-4 0  9991",
        "tle_line2": "2 66927  53.1579   6.0865 0001004 104.5186 140.6757 15.74173272  3414"
      },
      "geometry": {
        "type": "Point",
        "coordinates": [
          157.02098996135504,
          31.426082098427024
        ]
      }
    },
    {
      "type": "Feature",
      "properties": {
        "norad_id": 66928,
        "name": "STARLINK-35944",
        "group": "last-30-days",
        "lat": 34.15306648633175,
        "lon": 153.72127750402282,
        "alt_km": 342.31495288945916,
        "timestamp": "2025-12-21T22:41:40.166807+00:00",
        "meta_object_name": "STARLINK-35944",
        "meta_object_id": "2025-286D",
        "meta_epoch": "2025-12-21T14:00:01.999872",
        "meta_mean_motion": 15.7410229,
        "meta_eccentricity": 5.26e-05,
        "meta_inclination": 53.1578,
        "meta_ra_of_asc_node": 6.0941,
        "meta_arg_of_pericenter": 111.3298,
        "meta_mean_anomaly": 130.0195,
        "meta_ephemeris_type": 0,
        "meta_classification_type": "U",
        "meta_norad_cat_id": 66928,
        "meta_element_set_no": 999,
        "meta_rev_at_epoch": 341,
        "meta_bstar": 0.00077191353,
        "meta_mean_motion_dot": 0.00113526,
        "meta_mean_motion_ddot": 0,
        "tle_line1": "1 66928U 25286D   25355.58335648  .00113526  00000+0  77191-3 0  9991",
        "tle_line2": "2 66928  53.1578   6.0941 0000526 111.3298 130.0195 15.74102290  3418"
      },
      "geometry": {
        "type": "Point",
        "coordinates": [
          153.72127750402282,
          34.15306648633175
        ]
      }
    },
    {
      "type": "Feature",
      "properties": {
        "norad_id": 66929,
        "name": "STARLINK-36169",
        "group": "last-30-days",
        "lat": 30.047849390680224,
        "lon": 158.57917895244714,
        "alt_km": 343.07116675878115,
        "timestamp": "2025-12-21T22:41:40.166817+00:00",
        "meta_object_name": "STARLINK-36169",
        "meta_object_id": "2025-286E",
        "meta_epoch": "2025-12-21T14:00:01.999872",
        "meta_mean_motion": 15.74172453,
        "meta_eccentricity": 9.804e-05,
        "meta_inclination": 53.1575,
        "meta_ra_of_asc_node": 6.0821,
        "meta_arg_of_pericenter": 74.6439,
        "meta_mean_anomaly": 172.4722,
        "meta_ephemeris_type": 0,
        "meta_classification_type": "U",
        "meta_norad_cat_id": 66929,
        "meta_element_set_no": 999,
        "meta_rev_at_epoch": 341,
        "meta_bstar": -2.2753179e-05,
        "meta_mean_motion_dot": -3.957e-05,
        "meta_mean_motion_ddot": 0,
        "tle_line1": "1 66929U 25286E   25355.58335648 -.00003957  00000+0 -22753-4 0  9995",
        "tle_line2": "2 66929  53.1575   6.0821 0000980  74.6439 172.4722 15.74172453  3419"
      },
      "geometry": {
        "type": "Point",
        "coordinates": [
          158.57917895244714,
          30.047849390680224
        ]
      }
    },
    {
      "type": "Feature",
      "properties": {
        "norad_id": 66930,
        "name": "STARLINK-36206",
        "group": "last-30-days",
        "lat": 28.651922248946693,
        "lon": 160.0948993493743,
        "alt_km": 343.2359918790353,
        "timestamp": "2025-12-21T22:41:40.166826+00:00",
        "meta_object_name": "STARLINK-36206",
        "meta_object_id": "2025-286F",
        "meta_epoch": "2025-12-21T14:00:01.999872",
        "meta_mean_motion": 15.74191282,
        "meta_eccentricity": 0.00010979,
        "meta_inclination": 53.1578,
        "meta_ra_of_asc_node": 6.078,
        "meta_arg_of_pericenter": 79.1418,
        "meta_mean_anomaly": 169.8832,
        "meta_ephemeris_type": 0,
        "meta_classification_type": "U",
        "meta_norad_cat_id": 66930,
        "meta_element_set_no": 999,
        "meta_rev_at_epoch": 341,
        "meta_bstar": -0.00019902033,
        "meta_mean_motion_dot": -0.00029676,
        "meta_mean_motion_ddot": 0,
        "tle_line1": "1 66930U 25286F   25355.58335648 -.00029676  00000+0 -19902-3 0  9994",
        "tle_line2": "2 66930  53.1578   6.0780 0001097  79.1418 169.8832 15.74191282  3418"
      },
      "geometry": {
        "type": "Point",
        "coordinates": [
          160.0948993493743,
          28.651922248946693
        ]
      }
    },
    {
      "type": "Feature",
      "properties": {
        "norad_id": 66931,
        "name": "STARLINK-36130",
        "group": "last-30-days",
        "lat": 27.24427624391186,
        "lon": 161.56497736152429,
        "alt_km": 343.54086362768794,
        "timestamp": "2025-12-21T22:41:40.166836+00:00",
        "meta_object_name": "STARLINK-36130",
        "meta_object_id": "2025-286G",
        "meta_epoch": "2025-12-21T14:00:01.999872",
        "meta_mean_motion": 15.74191494,
        "meta_eccentricity": 9.251e-05,
        "meta_inclination": 53.1574,
        "meta_ra_of_asc_node": 6.074,
        "meta_arg_of_pericenter": 78.2203,
        "meta_mean_anomaly": 172.7208,
        "meta_ephemeris_type": 0,
        "meta_classification_type": "U",
        "meta_norad_cat_id": 66931,
        "meta_element_set_no": 999,
        "meta_rev_at_epoch": 341,
        "meta_bstar": -0.00019100593,
        "meta_mean_motion_dot": -0.0002851,
        "meta_mean_motion_ddot": 0,
        "tle_line1": "1 66931U 25286G   25355.58335648 -.00028510  00000+0 -19101-3 0  9992",
        "tle_line2": "2 66931  53.1574   6.0740 0000925  78.2203 172.7208 15.74191494  3417"
      },
      "geometry": {
        "type": "Point",
        "coordinates": [
          161.56497736152429,
          27.24427624391186
        ]
      }
    },
    {
      "type": "Feature",
      "properties": {
        "norad_id": 66932,
        "name": "STARLINK-36177",
        "group": "last-30-days",
        "lat": 25.824244036911526,
        "lon": 162.99575623707665,
        "alt_km": 343.698735160825,
        "timestamp": "2025-12-21T22:41:40.166848+00:00",
        "meta_object_name": "STARLINK-36177",
        "meta_object_id": "2025-286H",
        "meta_epoch": "2025-12-21T14:00:01.999872",
        "meta_mean_motion": 15.74178975,
        "meta_eccentricity": 9.713e-05,
        "meta_inclination": 53.1575,
        "meta_ra_of_asc_node": 6.0699,
        "meta_arg_of_pericenter": 84.8131,
        "meta_mean_anomaly": 168.0454,
        "meta_ephemeris_type": 0,
        "meta_classification_type": "U",
        "meta_norad_cat_id": 66932,
        "meta_element_set_no": 999,
        "meta_rev_at_epoch": 341,
        "meta_bstar": -3.0452607e-05,
        "meta_mean_motion_dot": -5.084e-05,
        "meta_mean_motion_ddot": 0,
        "tle_line1": "1 66932U 25286H   25355.58335648 -.00005084  00000+0 -30453-4 0  9998",
        "tle_line2": "2 66932  53.1575   6.0699 0000971  84.8131 168.0454 15.74178975  3416"
      },
      "geometry": {
        "type": "Point",
        "coordinates": [
          162.99575623707665,
          25.824244036911526
        ]
      }
    }
  ]
}